[{"OBJECT_NAME":"STARLINK-5544","OBJECT_ID":"2023-028S","EPOCH":"2026-03-09T21:40:37.978176","MEAN_MOTION":14.98341992,"ECCENTRICITY":0.00026957,"INCLINATION":69.9996,"RA_OF_ASC_NODE":243.8549,"ARG_OF_PERICENTER":272.5418,"MEAN_ANOMALY":87.5432,"EPHEMERIS_TYPE":0,"CLASSIFICATION_TYPE":"U","NORAD_CAT_ID":55757,"ELEMENT_SET_NO":999,"REV_AT_EPOCH":16607,"BSTAR":6.5475778e-5,"MEAN_MOTION_DOT":6.89e-6,"MEAN_MOTION_DDOT":0},{"OBJECT_NAME":"HAWK-8A","OBJECT_ID":"2024-066B","EPOCH":"2026-03-09T09:46:26.156352","MEAN_MOTION":14.98766556,"ECCENTRICITY":0.00042143,"INCLINATION":45.5937,"RA_OF_ASC_NODE":72.3645,"ARG_OF_PERICENTER":254.4969,"MEAN_ANOMALY":105.5447,"EPHEMERIS_TYPE":0,"CLASSIFICATION_TYPE":"U","NORAD_CAT_ID":59443,"ELEMENT_SET_NO":999,"REV_AT_EPOCH":10486,"BSTAR":0.0002089936,"MEAN_MOTION_DOT":2.325e-5,"MEAN_MOTION_DDOT":0}]
